start=new Date('2023-06-27T00:00:00.000Z').valueOf();
sats=[{"OBJECT_ID":"2022-125BA","INCLINATION":"53.2164","GP_ID":"234569965","MEAN_MOTION_DDOT":"0.0000000000000","MEAN_ELEMENT_THEORY":"SGP4","RCS_SIZE":"LARGE","COUNTRY_CODE":"US","EPHEMERIS_TYPE":"0","TLE_LINE1":"1 54012U 22125BA  23177.70584838  .00009432  00000-0  60946-3 0  9993","REV_AT_EPOCH":"4065","OBJECT_TYPE":"PAYLOAD","LAUNCH_DATE":"2022-10-05","CENTER_NAME":"EARTH","TIME_SYSTEM":"UTC","SEMIMAJOR_AXIS":"6917.794","ECCENTRICITY":"0.00010280","APOAPSIS":"540.370","SITE":"AFWTR","PERIAPSIS":"538.948","MEAN_MOTION_DOT":"0.00009432","PERIOD":"95.436","MEAN_MOTION":"15.08868228","NORAD_CAT_ID":"54012","MEAN_ANOMALY":"271.5609","DECAY_DATE":null,"ELEMENT_SET_NO":"999","ARG_OF_PERICENTER":"88.5501","OBJECT_NAME":"STARLINK-5126","REF_FRAME":"TEME","CLASSIFICATION_TYPE":"U","TLE_LINE2":"2 54012  53.2164 314.7407 0001028  88.5501 271.5609 15.08868228 40652","RA_OF_ASC_NODE":"314.7407","FILE":"3943500","EPOCH":"2023-06-26T16:56:25.300032","BSTAR":"0.00060946000000"},{"CENTER_NAME":"EARTH","LAUNCH_DATE":"2022-10-05","OBJECT_TYPE":"PAYLOAD","REV_AT_EPOCH":"4056","TLE_LINE1":"1 54013U 22125BB  23177.11707788 -.00000627  00000-0 -21338-4 0  9992","MEAN_MOTION_DOT":"-0.00000627","PERIAPSIS":"538.949","SITE":"AFWTR","APOAPSIS":"540.569","ECCENTRICITY":"0.00011710","TIME_SYSTEM":"UTC","SEMIMAJOR_AXIS":"6917.894","MEAN_ELEMENT_THEORY":"SGP4","MEAN_MOTION_DDOT":"0.0000000000000","GP_ID":"234555625","INCLINATION":"53.2165","OBJECT_ID":"2022-125BB","EPHEMERIS_TYPE":"0","COUNTRY_CODE":"US","RCS_SIZE":"LARGE","REF_FRAME":"TEME","BSTAR":"-0.00002133800000","EPOCH":"2023-06-26T02:48:35.528832","TLE_LINE2":"2 54013  53.2165 317.4625 0001171  81.3716 278.7408 15.08835414 40561","FILE":"3942905","RA_OF_ASC_NODE":"317.4625","CLASSIFICATION_TYPE":"U","MEAN_MOTION":"15.08835414","PERIOD":"95.438","OBJECT_NAME":"STARLINK-5098","ELEMENT_SET_NO":"999","ARG_OF_PERICENTER":"81.3716","DECAY_DATE":null,"MEAN_ANOMALY":"278.7408","NORAD_CAT_ID":"54013"},{"MEAN_MOTION":"15.08833154","PERIOD":"95.438","OBJECT_NAME":"STARLINK-5116","ELEMENT_SET_NO":"999","ARG_OF_PERICENTER":"85.3101","DECAY_DATE":null,"MEAN_ANOMALY":"274.7999","NORAD_CAT_ID":"54014","REF_FRAME":"TEME","BSTAR":"0.00005814800000","EPOCH":"2023-06-26T15:26:22.499808","FILE":"3943535","TLE_LINE2":"2 54014  53.2178 315.0622 0000949  85.3101 274.7999 15.08833154 40640","RA_OF_ASC_NODE":"315.0622","CLASSIFICATION_TYPE":"U","MEAN_ELEMENT_THEORY":"SGP4","MEAN_MOTION_DDOT":"0.0000000000000","GP_ID":"234570952","INCLINATION":"53.2178","OBJECT_ID":"2022-125BC","EPHEMERIS_TYPE":"0","COUNTRY_CODE":"US","RCS_SIZE":"LARGE","CENTER_NAME":"EARTH","LAUNCH_DATE":"2022-10-05","OBJECT_TYPE":"PAYLOAD","TLE_LINE1":"1 54014U 22125BC  23177.64331597  .00000638  00000-0  58148-4 0  9991","REV_AT_EPOCH":"4064","MEAN_MOTION_DOT":"0.00000638","PERIAPSIS":"539.110","SITE":"AFWTR","ECCENTRICITY":"0.00009490","APOAPSIS":"540.423","SEMIMAJOR_AXIS":"6917.901","TIME_SYSTEM":"UTC"},{"LAUNCH_DATE":"2022-10-05","CENTER_NAME":"EARTH","OBJECT_TYPE":"PAYLOAD","TLE_LINE1":"1 54015U 22125BD  23177.69850037 -.00000686  00000-0 -25029-4 0  9999","REV_AT_EPOCH":"4065","MEAN_MOTION_DOT":"-0.00000686","PERIAPSIS":"539.081","SITE":"AFWTR","ECCENTRICITY":"0.00009910","APOAPSIS":"540.452","TIME_SYSTEM":"UTC","SEMIMAJOR_AXIS":"6917.901","MEAN_MOTION_DDOT":"0.0000000000000","MEAN_ELEMENT_THEORY":"SGP4","GP_ID":"234571451","INCLINATION":"53.2167","OBJECT_ID":"2022-125BD","EPHEMERIS_TYPE":"0","COUNTRY_CODE":"US","RCS_SIZE":"LARGE","REF_FRAME":"TEME","BSTAR":"-0.00002502900000","EPOCH":"2023-06-26T16:45:50.431968","FILE":"3943535","TLE_LINE2":"2 54015  53.2167 314.6938 0000991  78.5856 281.5247 15.08833209 40656","RA_OF_ASC_NODE":"314.6938","CLASSIFICATION_TYPE":"U","MEAN_MOTION":"15.08833209","PERIOD":"95.438","OBJECT_NAME":"STARLINK-5055","ARG_OF_PERICENTER":"78.5856","ELEMENT_SET_NO":"999","DECAY_DATE":null,"MEAN_ANOMALY":"281.5247","NORAD_CAT_ID":"54015"},{"NORAD_CAT_ID":"54051","MEAN_ANOMALY":"269.9769","DECAY_DATE":null,"ARG_OF_PERICENTER":"90.1343","ELEMENT_SET_NO":"999","OBJECT_NAME":"STARLINK-5195","MEAN_MOTION":"15.08845997","PERIOD":"95.437","CLASSIFICATION_TYPE":"U","TLE_LINE2":"2 54051  53.2172  97.3668 0001044  90.1343 269.9769 15.08845997 38246","FILE":"3943417","RA_OF_ASC_NODE":"97.3668","EPOCH":"2023-06-26T04:53:09.474432","BSTAR":"0.00002430700000","REF_FRAME":"TEME","COUNTRY_CODE":"US","RCS_SIZE":"LARGE","EPHEMERIS_TYPE":"0","OBJECT_ID":"2022-136A","INCLINATION":"53.2172","GP_ID":"234568108","MEAN_MOTION_DDOT":"0.0000000000000","MEAN_ELEMENT_THEORY":"SGP4","TIME_SYSTEM":"UTC","SEMIMAJOR_AXIS":"6917.862","APOAPSIS":"540.449","ECCENTRICITY":"0.00010440","SITE":"AFETR","MEAN_MOTION_DOT":"0.00000099","PERIAPSIS":"539.005","OBJECT_TYPE":"PAYLOAD","TLE_LINE1":"1 54051U 22136A   23177.20358188  .00000099  00000-0  24307-4 0  9992","REV_AT_EPOCH":"3824","LAUNCH_DATE":"2022-10-20","CENTER_NAME":"EARTH"},{"REV_AT_EPOCH":"3874","TLE_LINE1":"1 54052U 22136B   23176.69201737  .00000120  00000-0  25638-4 0  9995","OBJECT_TYPE":"PAYLOAD","CENTER_NAME":"EARTH","LAUNCH_DATE":"2022-10-20","TIME_SYSTEM":"UTC","SEMIMAJOR_AXIS":"6917.895","ECCENTRICITY":"0.00014740","APOAPSIS":"540.780","SITE":"AFETR","PERIAPSIS":"538.740","MEAN_MOTION_DOT":"0.00000120","OBJECT_ID":"2022-136B","INCLINATION":"53.2184","GP_ID":"234553533","MEAN_MOTION_DDOT":"0.0000000000000","MEAN_ELEMENT_THEORY":"SGP4","RCS_SIZE":"LARGE","COUNTRY_CODE":"US","EPHEMERIS_TYPE":"0","REF_FRAME":"TEME","CLASSIFICATION_TYPE":"U","RA_OF_ASC_NODE":"59.2285","TLE_LINE2":"2 54052  53.2184  59.2285 0001474  91.0519 269.0642 15.08835219 38746","FILE":"3942788","EPOCH":"2023-06-25T16:36:30.300768","BSTAR":"0.00002563800000","PERIOD":"95.438","MEAN_MOTION":"15.08835219","MEAN_ANOMALY":"269.0642","NORAD_CAT_ID":"54052","DECAY_DATE":null,"ARG_OF_PERICENTER":"91.0519","ELEMENT_SET_NO":"999","OBJECT_NAME":"STARLINK-5189"},{"MEAN_MOTION":"15.08837739","PERIOD":"95.438","NORAD_CAT_ID":"54053","MEAN_ANOMALY":"278.2100","DECAY_DATE":null,"ELEMENT_SET_NO":"999","ARG_OF_PERICENTER":"81.9028","OBJECT_NAME":"STARLINK-5176","REF_FRAME":"TEME","CLASSIFICATION_TYPE":"U","FILE":"3943684","TLE_LINE2":"2 54053  53.2170  96.1518 0001201  81.9028 278.2100 15.08837739 38281","RA_OF_ASC_NODE":"96.1518","EPOCH":"2023-06-26T11:09:24.127776","BSTAR":"-0.00004126400000","OBJECT_ID":"2022-136C","INCLINATION":"53.2170","GP_ID":"234574307","MEAN_ELEMENT_THEORY":"SGP4","MEAN_MOTION_DDOT":"0.0000000000000","COUNTRY_CODE":"US","RCS_SIZE":"LARGE","EPHEMERIS_TYPE":"0","OBJECT_TYPE":"PAYLOAD","TLE_LINE1":"1 54053U 22136C   23177.46486259 -.00000944  00000-0 -41264-4 0  9995","REV_AT_EPOCH":"3828","CENTER_NAME":"EARTH","LAUNCH_DATE":"2022-10-20","TIME_SYSTEM":"UTC","SEMIMAJOR_AXIS":"6917.887","ECCENTRICITY":"0.00012010","APOAPSIS":"540.583","SITE":"AFETR","MEAN_MOTION_DOT":"-0.00000944","PERIAPSIS":"538.921"},{"PERIOD":"95.437","MEAN_MOTION":"15.08843850","ARG_OF_PERICENTER":"99.3460","ELEMENT_SET_NO":"999","OBJECT_NAME":"STARLINK-5163","MEAN_ANOMALY":"260.7668","NORAD_CAT_ID":"54054","DECAY_DATE":null,"REF_FRAME":"TEME","EPOCH":"2023-06-26T01:26:28.027104","BSTAR":"0.00012069000000","CLASSIFICATION_TYPE":"U","TLE_LINE2":"2 54054  53.2163  97.8876 0001200  99.3460 260.7668 15.08843850 38221","RA_OF_ASC_NODE":"97.8876","FILE":"3943107","GP_ID":"234560910","MEAN_MOTION_DDOT":"0.0000000000000","MEAN_ELEMENT_THEORY":"SGP4","OBJECT_ID":"2022-136D","INCLINATION":"53.2163","EPHEMERIS_TYPE":"0","RCS_SIZE":"LARGE","COUNTRY_CODE":"US","TLE_LINE1":"1 54054U 22136D   23177.06004661  .00001634  00000-0  12069-3 0  9990","REV_AT_EPOCH":"3822","OBJECT_TYPE":"PAYLOAD","CENTER_NAME":"EARTH","LAUNCH_DATE":"2022-10-20","SITE":"AFETR","PERIAPSIS":"538.903","MEAN_MOTION_DOT":"0.00001634","TIME_SYSTEM":"UTC","SEMIMAJOR_AXIS":"6917.869","ECCENTRICITY":"0.00012000","APOAPSIS":"540.564"},{"OBJECT_ID":"2022-136E","INCLINATION":"53.2146","GP_ID":"234574313","MEAN_MOTION_DDOT":"0.0000000000000","MEAN_ELEMENT_THEORY":"SGP4","RCS_SIZE":"LARGE","COUNTRY_CODE":"US","EPHEMERIS_TYPE":"0","TLE_LINE1":"1 54055U 22136E   23177.72614390  .00000134  00000-0  26524-4 0  9996","REV_AT_EPOCH":"3832","OBJECT_TYPE":"PAYLOAD","LAUNCH_DATE":"2022-10-20","CENTER_NAME":"EARTH","TIME_SYSTEM":"UTC","SEMIMAJOR_AXIS":"6917.910","ECCENTRICITY":"0.00013680","APOAPSIS":"540.722","SITE":"AFETR","PERIAPSIS":"538.829","MEAN_MOTION_DOT":"0.00000134","PERIOD":"95.438","MEAN_MOTION":"15.08830179","MEAN_ANOMALY":"271.8291","NORAD_CAT_ID":"54055","DECAY_DATE":null,"ELEMENT_SET_NO":"999","ARG_OF_PERICENTER":"88.2858","OBJECT_NAME":"STARLINK-5158","REF_FRAME":"TEME","CLASSIFICATION_TYPE":"U","FILE":"3943684","TLE_LINE2":"2 54055  53.2146  94.9392 0001368  88.2858 271.8291 15.08830179 38323","RA_OF_ASC_NODE":"94.9392","EPOCH":"2023-06-26T17:25:38.832960","BSTAR":"0.00002652400000"},{"DECAY_DATE":null,"MEAN_ANOMALY":"269.4341","NORAD_CAT_ID":"54056","OBJECT_NAME":"STARLINK-5226","ELEMENT_SET_NO":"999","ARG_OF_PERICENTER":"90.6802","PERIOD":"95.437","MEAN_MOTION":"15.08842155","FILE":"3943412","TLE_LINE2":"2 54056  53.2180  97.8737 0001319  90.6802 269.4341 15.08842155 38224","RA_OF_ASC_NODE":"97.8737","CLASSIFICATION_TYPE":"U","BSTAR":"0.00010602000000","EPOCH":"2023-06-26T01:22:32.611296","REF_FRAME":"TEME","RCS_SIZE":"LARGE","COUNTRY_CODE":"US","EPHEMERIS_TYPE":"0","INCLINATION":"53.2180","OBJECT_ID":"2022-136F","MEAN_ELEMENT_THEORY":"SGP4","MEAN_MOTION_DDOT":"0.0000000000000","GP_ID":"234567900","ECCENTRICITY":"0.00013190","APOAPSIS":"540.651","SEMIMAJOR_AXIS":"6917.874","TIME_SYSTEM":"UTC","PERIAPSIS":"538.826","MEAN_MOTION_DOT":"0.00001400","SITE":"AFETR","LAUNCH_DATE":"2022-10-20","CENTER_NAME":"EARTH","TLE_LINE1":"1 54056U 22136F   23177.05732189  .00001400  00000-0  10602-3 0  9996","REV_AT_EPOCH":"3822","OBJECT_TYPE":"PAYLOAD"}];
